start=new Date('2023-01-18T00:00:00.000Z').valueOf();
sats=[{"REF_FRAME":"TEME","TLE_LINE1":"1 45366U 20019G   23018.01846507  .00018280  00000-0  12428-2 0  9999","BSTAR":"0.00124280000000","REV_AT_EPOCH":"15690","ECCENTRICITY":"0.00011840","SITE":"AFETR","MEAN_MOTION_DOT":"0.00018280","PERIOD":"95.592","OBJECT_ID":"2020-019G","RCS_SIZE":"LARGE","MEAN_MOTION_DDOT":"0.0000000000000","ELEMENT_SET_NO":"999","OBJECT_NAME":"STARLINK-1262","ARG_OF_PERICENTER":"100.4994","NORAD_CAT_ID":"45366","FILE":"3753229","EPOCH":"2023-01-18T00:26:35.382048","DECAY_DATE":null,"OBJECT_TYPE":"PAYLOAD","CLASSIFICATION_TYPE":"U","PERIAPSIS":"546.384","LAUNCH_DATE":"2020-03-18","MEAN_MOTION":"15.06403085","INCLINATION":"53.0534","MEAN_ELEMENT_THEORY":"SGP4","EPHEMERIS_TYPE":"0","MEAN_ANOMALY":"259.6129","GP_ID":"223357717","TLE_LINE2":"2 45366  53.0534 274.2328 0001184 100.4994 259.6129 15.06403085156902","RA_OF_ASC_NODE":"274.2328","SEMIMAJOR_AXIS":"6925.339","APOAPSIS":"548.024","CENTER_NAME":"EARTH","TIME_SYSTEM":"UTC","COUNTRY_CODE":"US"},{"PERIOD":"95.591","SITE":"AFETR","ECCENTRICITY":"0.00013110","MEAN_MOTION_DOT":"0.00022266","REV_AT_EPOCH":"15689","BSTAR":"0.00150820000000","TLE_LINE1":"1 45367U 20019H   23017.97423050  .00022266  00000-0  15082-2 0  9996","REF_FRAME":"TEME","NORAD_CAT_ID":"45367","ARG_OF_PERICENTER":"77.4098","ELEMENT_SET_NO":"999","OBJECT_NAME":"STARLINK-1273","RCS_SIZE":"LARGE","OBJECT_ID":"2020-019H","MEAN_MOTION_DDOT":"0.0000000000000","LAUNCH_DATE":"2020-03-18","MEAN_MOTION":"15.06419533","EPOCH":"2023-01-17T23:22:53.515200","FILE":"3753232","DECAY_DATE":null,"PERIAPSIS":"546.246","CLASSIFICATION_TYPE":"U","OBJECT_TYPE":"PAYLOAD","TIME_SYSTEM":"UTC","SEMIMAJOR_AXIS":"6925.289","APOAPSIS":"548.062","CENTER_NAME":"EARTH","COUNTRY_CODE":"US","MEAN_ANOMALY":"282.7038","RA_OF_ASC_NODE":"274.4313","TLE_LINE2":"2 45367  53.0536 274.4313 0001311  77.4098 282.7038 15.06419533156890","GP_ID":"223357748","EPHEMERIS_TYPE":"0","MEAN_ELEMENT_THEORY":"SGP4","INCLINATION":"53.0536"},{"PERIOD":"95.591","SITE":"AFETR","ECCENTRICITY":"0.00013030","MEAN_MOTION_DOT":"0.00020316","REV_AT_EPOCH":"15690","TLE_LINE1":"1 45368U 20019J   23018.01109200  .00020316  00000-0  13784-2 0  9992","BSTAR":"0.00137840000000","REF_FRAME":"TEME","NORAD_CAT_ID":"45368","ARG_OF_PERICENTER":"66.4474","ELEMENT_SET_NO":"999","OBJECT_NAME":"STARLINK-1276","RCS_SIZE":"LARGE","OBJECT_ID":"2020-019J","MEAN_MOTION_DDOT":"0.0000000000000","LAUNCH_DATE":"2020-03-18","MEAN_MOTION":"15.06411752","EPOCH":"2023-01-18T00:15:58.348800","FILE":"3753232","DECAY_DATE":null,"CLASSIFICATION_TYPE":"U","PERIAPSIS":"546.275","OBJECT_TYPE":"PAYLOAD","TIME_SYSTEM":"UTC","APOAPSIS":"548.080","SEMIMAJOR_AXIS":"6925.313","CENTER_NAME":"EARTH","COUNTRY_CODE":"US","MEAN_ANOMALY":"293.6652","RA_OF_ASC_NODE":"274.2730","TLE_LINE2":"2 45368  53.0514 274.2730 0001303  66.4474 293.6652 15.06411752156905","GP_ID":"223357517","EPHEMERIS_TYPE":"0","MEAN_ELEMENT_THEORY":"SGP4","INCLINATION":"53.0514"},{"TLE_LINE1":"1 45369U 20019K   23017.94380289  .00012906  00000-0  88387-3 0  9990","BSTAR":"0.00088387000000","REV_AT_EPOCH":"15689","REF_FRAME":"TEME","PERIOD":"95.593","ECCENTRICITY":"0.00012610","SITE":"AFETR","MEAN_MOTION_DOT":"0.00012906","ELEMENT_SET_NO":"999","OBJECT_NAME":"STARLINK-1277","RCS_SIZE":"LARGE","OBJECT_ID":"2020-019K","MEAN_MOTION_DDOT":"0.0000000000000","NORAD_CAT_ID":"45369","ARG_OF_PERICENTER":"123.1907","LAUNCH_DATE":"2020-03-18","MEAN_MOTION":"15.06394249","FILE":"3753232","DECAY_DATE":null,"EPOCH":"2023-01-17T22:39:04.569696","OBJECT_TYPE":"PAYLOAD","CLASSIFICATION_TYPE":"U","PERIAPSIS":"546.358","EPHEMERIS_TYPE":"0","INCLINATION":"53.0529","MEAN_ELEMENT_THEORY":"SGP4","CENTER_NAME":"EARTH","APOAPSIS":"548.104","SEMIMAJOR_AXIS":"6925.366","TIME_SYSTEM":"UTC","COUNTRY_CODE":"US","MEAN_ANOMALY":"236.9203","TLE_LINE2":"2 45369  53.0529 274.5640 0001261 123.1907 236.9203 15.06394249156891","GP_ID":"223357746","RA_OF_ASC_NODE":"274.5640"},{"PERIAPSIS":"546.197","CLASSIFICATION_TYPE":"U","OBJECT_TYPE":"PAYLOAD","FILE":"3753241","EPOCH":"2023-01-18T00:00:02.306016","DECAY_DATE":null,"MEAN_MOTION":"15.06403796","LAUNCH_DATE":"2020-03-18","RA_OF_ASC_NODE":"274.3202","TLE_LINE2":"2 45370  53.0531 274.3202 0001451  95.5658 264.5497 15.06403796156872","GP_ID":"223357534","MEAN_ANOMALY":"264.5497","COUNTRY_CODE":"US","TIME_SYSTEM":"UTC","APOAPSIS":"548.207","CENTER_NAME":"EARTH","SEMIMAJOR_AXIS":"6925.337","MEAN_ELEMENT_THEORY":"SGP4","INCLINATION":"53.0531","EPHEMERIS_TYPE":"0","MEAN_MOTION_DOT":"0.00000524","ECCENTRICITY":"0.00014510","SITE":"AFETR","PERIOD":"95.592","REF_FRAME":"TEME","REV_AT_EPOCH":"15687","BSTAR":"0.00005407100000","TLE_LINE1":"1 45370U 20019L   23018.00002669  .00000524  00000-0  54071-4 0  9990","ARG_OF_PERICENTER":"95.5658","NORAD_CAT_ID":"45370","MEAN_MOTION_DDOT":"0.0000000000000","RCS_SIZE":"LARGE","OBJECT_ID":"2020-019L","OBJECT_NAME":"STARLINK-1281","ELEMENT_SET_NO":"999"},{"MEAN_ELEMENT_THEORY":"SGP4","INCLINATION":"53.0518","EPHEMERIS_TYPE":"0","RA_OF_ASC_NODE":"274.7729","GP_ID":"223379252","TLE_LINE2":"2 45371  53.0518 274.7729 0001262  82.5127 277.6005 15.06396725156887","MEAN_ANOMALY":"277.6005","COUNTRY_CODE":"US","TIME_SYSTEM":"UTC","CENTER_NAME":"EARTH","APOAPSIS":"548.098","SEMIMAJOR_AXIS":"6925.359","PERIAPSIS":"546.350","CLASSIFICATION_TYPE":"U","OBJECT_TYPE":"PAYLOAD","DECAY_DATE":null,"FILE":"3753286","EPOCH":"2023-01-17T21:30:04.334400","MEAN_MOTION":"15.06396725","LAUNCH_DATE":"2020-03-18","MEAN_MOTION_DDOT":"0.0000000000000","OBJECT_ID":"2020-019M","RCS_SIZE":"LARGE","OBJECT_NAME":"STARLINK-1287","ELEMENT_SET_NO":"999","ARG_OF_PERICENTER":"82.5127","NORAD_CAT_ID":"45371","REF_FRAME":"TEME","REV_AT_EPOCH":"15688","TLE_LINE1":"1 45371U 20019M   23017.89588350  .00012955  00000-0  88711-3 0  9991","BSTAR":"0.00088711000000","MEAN_MOTION_DOT":"0.00012955","ECCENTRICITY":"0.00012620","SITE":"AFETR","PERIOD":"95.592"},{"MEAN_MOTION_DOT":"0.00004430","SITE":"AFETR","ECCENTRICITY":"0.00014560","PERIOD":"95.592","REF_FRAME":"TEME","BSTAR":"0.00031608000000","TLE_LINE1":"1 45372U 20019N   23017.91156992  .00004430  00000-0  31608-3 0  9990","REV_AT_EPOCH":"15688","ARG_OF_PERICENTER":"74.9201","NORAD_CAT_ID":"45372","MEAN_MOTION_DDOT":"0.0000000000000","RCS_SIZE":"LARGE","OBJECT_ID":"2020-019N","OBJECT_NAME":"STARLINK-1288","ELEMENT_SET_NO":"999","OBJECT_TYPE":"PAYLOAD","PERIAPSIS":"546.195","CLASSIFICATION_TYPE":"U","EPOCH":"2023-01-17T21:52:39.641088","FILE":"3753286","DECAY_DATE":null,"MEAN_MOTION":"15.06403487","LAUNCH_DATE":"2020-03-18","GP_ID":"223378006","TLE_LINE2":"2 45372  53.0549 274.7016 0001456  74.9201 285.1949 15.06403487156889","RA_OF_ASC_NODE":"274.7016","MEAN_ANOMALY":"285.1949","COUNTRY_CODE":"US","CENTER_NAME":"EARTH","APOAPSIS":"548.211","SEMIMAJOR_AXIS":"6925.338","TIME_SYSTEM":"UTC","INCLINATION":"53.0549","MEAN_ELEMENT_THEORY":"SGP4","EPHEMERIS_TYPE":"0"},{"PERIOD":"95.595","MEAN_MOTION_DOT":"0.00025962","ECCENTRICITY":"0.00011000","SITE":"AFETR","TLE_LINE1":"1 45373U 20019P   23017.89316321  .00025962  00000-0  17575-2 0  9991","BSTAR":"0.00175750000000","REV_AT_EPOCH":"15688","REF_FRAME":"TEME","NORAD_CAT_ID":"45373","ARG_OF_PERICENTER":"96.8890","OBJECT_NAME":"STARLINK-1295","ELEMENT_SET_NO":"999","MEAN_MOTION_DDOT":"0.0000000000000","RCS_SIZE":"LARGE","OBJECT_ID":"2020-019P","MEAN_MOTION":"15.06355524","LAUNCH_DATE":"2020-03-18","OBJECT_TYPE":"PAYLOAD","PERIAPSIS":"546.588","CLASSIFICATION_TYPE":"U","FILE":"3753286","DECAY_DATE":null,"EPOCH":"2023-01-17T21:26:09.301344","COUNTRY_CODE":"US","APOAPSIS":"548.112","SEMIMAJOR_AXIS":"6925.485","CENTER_NAME":"EARTH","TIME_SYSTEM":"UTC","TLE_LINE2":"2 45373  53.0546 274.7913 0001100  96.8890 263.2224 15.06355524156887","GP_ID":"223378256","RA_OF_ASC_NODE":"274.7913","MEAN_ANOMALY":"263.2224","EPHEMERIS_TYPE":"0","INCLINATION":"53.0546","MEAN_ELEMENT_THEORY":"SGP4"},{"REF_FRAME":"TEME","TLE_LINE1":"1 45374U 20019Q   23017.88945536  .00010743  00000-0  73913-3 0  9997","BSTAR":"0.00073913000000","REV_AT_EPOCH":"15688","MEAN_MOTION_DOT":"0.00010743","SITE":"AFETR","ECCENTRICITY":"0.00010440","PERIOD":"95.593","MEAN_MOTION_DDOT":"0.0000000000000","RCS_SIZE":"LARGE","OBJECT_ID":"2020-019Q","OBJECT_NAME":"STARLINK-1300","ELEMENT_SET_NO":"999","ARG_OF_PERICENTER":"83.4622","NORAD_CAT_ID":"45374","OBJECT_TYPE":"PAYLOAD","PERIAPSIS":"546.510","CLASSIFICATION_TYPE":"U","DECAY_DATE":null,"FILE":"3753286","EPOCH":"2023-01-17T21:20:48.943104","MEAN_MOTION":"15.06393553","LAUNCH_DATE":"2020-03-18","INCLINATION":"53.0515","MEAN_ELEMENT_THEORY":"SGP4","EPHEMERIS_TYPE":"0","TLE_LINE2":"2 45374  53.0515 274.8069 0001044  83.4622 276.6485 15.06393553156880","GP_ID":"223379007","RA_OF_ASC_NODE":"274.8069","MEAN_ANOMALY":"276.6485","COUNTRY_CODE":"US","APOAPSIS":"547.956","CENTER_NAME":"EARTH","SEMIMAJOR_AXIS":"6925.368","TIME_SYSTEM":"UTC"},{"ARG_OF_PERICENTER":"82.2841","NORAD_CAT_ID":"45375","MEAN_MOTION_DDOT":"0.0000000000000","RCS_SIZE":"LARGE","OBJECT_ID":"2020-019R","OBJECT_NAME":"STARLINK-1302","ELEMENT_SET_NO":"999","MEAN_MOTION_DOT":"0.00006042","ECCENTRICITY":"0.00011510","SITE":"AFETR","PERIOD":"95.592","REF_FRAME":"TEME","BSTAR":"0.00042416000000","TLE_LINE1":"1 45375U 20019R   23017.90419890  .00006042  00000-0  42416-3 0  9991","REV_AT_EPOCH":"15688","TLE_LINE2":"2 45375  53.0549 274.7364 0001151  82.2841 277.8278 15.06399279156888","GP_ID":"223378752","RA_OF_ASC_NODE":"274.7364","MEAN_ANOMALY":"277.8278","COUNTRY_CODE":"US","APOAPSIS":"548.013","CENTER_NAME":"EARTH","SEMIMAJOR_AXIS":"6925.351","TIME_SYSTEM":"UTC","INCLINATION":"53.0549","MEAN_ELEMENT_THEORY":"SGP4","EPHEMERIS_TYPE":"0","OBJECT_TYPE":"PAYLOAD","PERIAPSIS":"546.419","CLASSIFICATION_TYPE":"U","FILE":"3753286","EPOCH":"2023-01-17T21:42:02.784960","DECAY_DATE":null,"MEAN_MOTION":"15.06399279","LAUNCH_DATE":"2020-03-18"}];
